<?xml version="1.0" encoding="UTF-8"?>
<kml xmlns="http://earth.google.com/kml/2.1">
  <Document>
    <name>Morocco 2000</name>
    <description>
Some GPS coords from the Morocco 2000 expedition.
</description>
    <Placemark>
      <name>Our Track</name>
      <description>Part of the track we took after the GPS reset...</description>
      <LineString>
        <coordinates>
-4.7354723,30.64147
-4.73507,30.6415612
-4.7335518,30.6415397
-4.7323556,30.64147
-4.7313041,30.6413949
-4.7299577,30.6419474
-4.7283215,30.6427413
-4.7266425,30.6436533
-4.7256983,30.6442326
-4.7245289,30.6446189
-4.7234292,30.6451446
-4.7219271,30.6459278
-4.7208328,30.6466895
-4.7195024,30.64758
-4.7184617,30.6481004
-4.7170777,30.6487334
-4.7153986,30.6495273
-4.7142399,30.6501228
-4.7133816,30.6505144
-4.7123946,30.6510186
-4.7113485,30.6516248
-4.7100289,30.6524295
-4.7086556,30.6532019
-4.7066707,30.6541139
-4.7048522,30.6550151
-4.703275,30.6557983
-4.7017086,30.6565976
-4.700212,30.6575847
-4.6988548,30.658915
-4.6974064,30.6608248
-4.6960706,30.6625199
-4.695046,30.6637913
-4.6940375,30.6649876
-4.6930773,30.665862
-4.6920527,30.6667525
-4.6915323,30.6675625
-4.6913982,30.6686085
-4.6919561,30.6698155
-4.6916825,30.6703681
-4.691366,30.6711191
-4.6913392,30.6711781
-4.6913231,30.6712264
-4.6914841,30.6711298
-4.6914787,30.67128
-4.691189,30.6716341
-4.6910603,30.6717145
-4.6909369,30.672428
-4.6913446,30.6733882
-4.6917362,30.6741285
-4.6921814,30.6752551
-4.6925569,30.6759202
-4.6933133,30.6760973
-4.6942092,30.6766015
-4.6942843,30.6770468
-4.6944506,30.6777012
-4.694295,30.6782699
-4.6935655,30.6792569
-4.6926052,30.6803995
-4.6920473,30.6812525
-4.6920581,30.6818479
-4.6918971,30.6825507
-4.6912212,30.6830496
-4.690674,30.6836128
-4.6899445,30.6844604
-4.6897245,30.6849968
-4.6889896,30.6857479
-4.6886248,30.6862146
-4.6882332,30.6867456
-4.6874178,30.6871587
-4.6863879,30.6872499
-4.6852452,30.6872284
-4.684859,30.6875128
-4.683931,30.6882906
-4.6830673,30.6890148
-4.6824021,30.6896907
-4.6819032,30.6902057
-4.6812595,30.691005
-4.6810073,30.6914771
-4.6809108,30.6921154
-4.6804226,30.6927484
-4.6798486,30.6936336
-4.679457,30.6945831
-4.6790386,30.6952322
-4.6788884,30.6958169
-4.6785719,30.6962353
-4.678293,30.6967932
-4.6777297,30.6976247
-4.6770591,30.6983435
-4.6766461,30.6990838
-4.6766997,30.6996685
-4.6761847,30.6999046
-4.6754391,30.6997651
-4.674672,30.6994003
-4.6738244,30.6991804
-4.6724672,30.6990302
-4.6714372,30.6993467
-4.6700049,30.7000226
-4.6694953,30.7002157
-4.6692432,30.7002693
-4.6681488,30.7004249
-4.6674354,30.7006717
-4.6666093,30.7010847
-4.6655578,30.701825
-4.6649248,30.7026511
-4.6643723,30.7033539
-4.6637554,30.7039064
-4.6627844,30.7048398
-4.6620012,30.7057518
-4.6613682,30.7065618
-4.6607084,30.7074094
-4.6598125,30.7085037
-4.659083,30.7093191
-4.6580637,30.7099199
-4.6573342,30.710569
-4.6567709,30.7113951
-4.6561594,30.7121783
-4.6555156,30.7126504
-4.6543462,30.7133049
-4.6533967,30.7136267
-4.6524794,30.7137769
-4.6515835,30.7139271
-4.6507789,30.7141364
-4.6499313,30.7141149
-4.648853,30.7141954
-4.6483166,30.7144636
-4.6476353,30.714882
-4.647013,30.7149249
-4.6463318,30.7152897
-4.6456397,30.7157779
-4.644996,30.7163036
-4.6443898,30.7163894
-4.6433921,30.7162178
-4.642759,30.7158101
-4.6418578,30.7157189
-4.6407581,30.7160085
-4.6397925,30.716148
-4.6386553,30.7161856
-4.6372605,30.7161856
-4.6363057,30.71603
-4.6352113,30.7160461
-4.6334357,30.7162499
-4.6324272,30.7165343
-4.6315635,30.7165396
-4.6306837,30.7165396
-4.6296913,30.7166308
-4.6288706,30.7165289
-4.6280445,30.7161266
-4.6272291,30.715633
-4.626301,30.7153273
-4.6256895,30.7151181
-4.6246756,30.7149196
-4.6235973,30.714882
-4.622503,30.714823
-4.6213711,30.7148015
-4.6201748,30.7148123
-4.6190698,30.7148391
-4.6178628,30.7146567
-4.6164305,30.7142651
-4.614789,30.7138091
-4.6138931,30.7135731
-4.6127344,30.7133961
-4.6112753,30.7133263
-4.610315,30.7132137
-4.6093548,30.7130635
-4.6084536,30.7129776
-4.6075416,30.7127684
-4.6064849,30.7125056
-4.6052564,30.712291
-4.6044249,30.7121032
-4.6035827,30.7117975
-4.6028853,30.7115561
-4.6021987,30.7114112
-4.6016783,30.7112986
-4.6008737,30.711261
-4.6000636,30.7112825
-4.5990551,30.7115722
-4.5984919,30.7121301
-4.5974941,30.7120228
-4.596609,30.7119048
-4.595874,30.711937
-4.5954663,30.7121193
-4.5952947,30.7122856
-4.5948065,30.7128811
-4.5942808,30.7134283
-4.593798,30.7138091
-4.5930792,30.7139379
-4.5923335,30.7139379
-4.5919795,30.7140398
-4.5909602,30.7140613
-4.5899571,30.7139754
-4.5889593,30.7138199
-4.5874358,30.7137448
-4.5860411,30.7137018
-4.5843835,30.7134873
-4.5829512,30.713219
-4.5821894,30.713042
-4.5810843,30.7130098
-4.5795823,30.7130527
-4.578327,30.7130152
-4.5772005,30.7132298
-4.575913,30.7135838
-4.5749796,30.7137394
-4.5737083,30.7140291
-4.5728821,30.7143241
-4.5718951,30.7147104
-4.5708437,30.7152039
-4.569803,30.7156867
-4.5689286,30.7160246
-4.5681775,30.7164323
-4.5672602,30.7167166
-4.5662195,30.7168615
-4.5651627,30.7169634
-4.5638967,30.7173282
-4.5629043,30.7172424
-4.5617563,30.7169795
-4.5610482,30.7171565
-4.5595516,30.7174784
-4.5583875,30.7179236
-4.5568318,30.7184815
-4.5554585,30.7188785
-4.5543534,30.7189965
-4.5526368,30.7190824
-4.5510382,30.7193559
-4.5493592,30.7197851
-4.5487208,30.7202411
-4.548576,30.7208151
-4.5492894,30.7214051
-4.5501477,30.7224727
-4.5511026,30.7238084
-4.5517839,30.724656
-4.5525885,30.7256806
-4.5536614,30.7267588
-4.5536722,30.7273382
-4.5532859,30.7281053
-4.5534415,30.728749
-4.5537955,30.7304013
-4.5539833,30.7318658
-4.5538867,30.7324022
-4.5542354,30.7331264
-4.5548201,30.7341832
-4.5549489,30.7353312
-4.5549435,30.7366347
-4.5546324,30.7384104
-4.5545841,30.7399768
-4.5546699,30.7407922
-4.5547826,30.7419187
-4.555083,30.7426643
-4.555421,30.7436889
-4.5558126,30.7443702
-4.5563866,30.7451963
-4.5568801,30.7458079
-4.557159,30.7462531
-4.5572395,30.7463658
-4.5573629,30.7465589
-4.5576311,30.7472992
-4.5577277,30.7481468
-4.5578779,30.7489836
-4.5580763,30.7499653
-4.5583875,30.7507646
-4.5589507,30.7520467
-4.5595247,30.7530767
-4.5603616,30.7541871
-4.5620353,30.7565904
-4.5622981,30.757277
-4.5628507,30.7579315
-4.5634086,30.75894
-4.5635802,30.759396
-4.5636178,30.7595462
-4.5639933,30.7603079
-4.5646156,30.7607907
-4.5649267,30.7615954
-4.5644922,30.7622874
-4.5635266,30.7636607
-4.5624591,30.7648838
-4.562443,30.765667
-4.5623786,30.7673246
-4.5627756,30.7682258
-4.5632637,30.7685691
-4.5641811,30.7690734
-4.5653612,30.7697332
-4.5666862,30.7705218
-4.5679469,30.7711011
-4.568891,30.7711333
-4.5696635,30.7711601
-4.5698405,30.7712728
-4.5699746,30.7715249
-4.5704306,30.7724905
-4.5710958,30.7731557
-4.5719487,30.7736278
-4.572909,30.7743895
-4.5733274,30.775103
-4.5737619,30.7754946
-4.5750923,30.7762885
-4.5762349,30.7770824
-4.5770235,30.7777691
-4.5781071,30.778681
-4.5791102,30.7795018
-4.5796038,30.7803923
-4.5808698,30.7817227
-4.5816637,30.7826829
-4.5824791,30.7837182
-4.5831926,30.7847536
-4.5840455,30.785805
-4.5847697,30.7868189
-4.585628,30.787881
-4.5865829,30.7891524
-4.587763,30.7904345
-4.5890988,30.7914537
-4.5897801,30.792017
-4.5906491,30.7926178
-4.5911158,30.7932723
-4.5914538,30.7942218
-4.5919419,30.7955736
-4.5922477,30.7966357
-4.5928324,30.7974941
-4.5938785,30.7988244
-4.5947904,30.7999241
-4.5958848,30.8011526
-4.5970649,30.8022738
-4.597993,30.803116
-4.5991571,30.8044785
-4.6004874,30.8058465
-4.6015442,30.8068603
-4.6027727,30.8081263
-4.6038992,30.8092153
-4.6053583,30.8106101
-4.6065224,30.8117473
-4.6079118,30.8130884
-4.6089418,30.8137912
-4.6099503,30.8146065
-4.6111465,30.8156151
-4.61267,30.8167952
-4.6136624,30.8178949
-4.614907,30.8193058
-4.615776,30.8203733
-4.6168328,30.8215374
-4.6177233,30.8226424
-4.6187801,30.8237153
-4.6197832,30.8249384
-4.6205665,30.8254427
-4.6220631,30.8263117
-4.6235062,30.8272183
-4.6249867,30.8284789
-4.62636,30.8294553
-4.6277762,30.8306086
-4.628538,30.8315527
-4.6295143,30.8324164
-4.6302707,30.8332586
-4.6309842,30.8340043
-4.6323253,30.8352166
-4.6335001,30.8364022
-4.6344496,30.8376735
-4.6353991,30.8390307
-4.6365202,30.8403558
-4.6375824,30.8416325
-4.6385963,30.8425337
-4.6397067,30.84351
-4.6409566,30.8446151
-4.64211,30.8455539
-4.6433706,30.8466965
-4.644701,30.8480161
-4.6459616,30.8491373
-4.6466322,30.8499098
-4.6469326,30.8509398
-4.6476997,30.8520126
-4.6487511,30.8533859
-4.6495933,30.854432
-4.6505321,30.855521
-4.6512509,30.8564651
-4.6520073,30.8573288
-4.6525008,30.8580261
-4.6531607,30.8595175
-4.6537186,30.8604991
-4.6543837,30.86169
-4.6545179,30.8625644
-4.654491,30.8635783
-4.6550811,30.8648711
-4.655859,30.8660084
-4.6568997,30.8673012
-4.6576239,30.8685297
-4.6581388,30.8697581
-4.6582193,30.8708203
-4.6580745,30.8724779
-4.6582998,30.8737493
-4.6583051,30.8744735
-4.6582944,30.8752942
-4.6583588,30.876072
-4.6584339,30.8767104
-4.6586324,30.8773273
-4.659142,30.8781159
-4.6596784,30.8785719
-4.6601451,30.8788884
-4.6604241,30.8793551
-4.6604777,30.8794141
-4.6612877,30.8825308
-4.6613307,30.8829653
-4.6612663,30.8834481
-4.6613789,30.8840168
-4.6617384,30.8851111
-4.6618886,30.8857924
-4.6619529,30.886656
-4.6619798,30.8874607
-4.6619583,30.8881259
-4.6621192,30.8886194
-4.6623231,30.8898103
-4.6624733,30.8907545
-4.6626074,30.891484
-4.662763,30.8922565
-4.6630526,30.893383
-4.6633638,30.8939838
-4.6638841,30.894708
-4.66456,30.8956844
-4.665016,30.8963764
-4.6653862,30.8968484
-4.6654398,30.8968914
-4.6655417,30.8969986
-4.6662069,30.8980179
-4.666915,30.8992356
-4.6672154,30.9002227
-4.667607,30.9011883
-4.6681918,30.9023255
-4.6689803,30.9033662
-4.6697206,30.9041387
-4.6704394,30.9048039
-4.6716089,30.9058285
-4.673009,30.9069711
-4.673937,30.9074754
-4.6747632,30.9081191
-4.6753533,30.9087843
-4.6759594,30.9093422
-4.6769626,30.9101683
-4.6776117,30.9108013
-4.6781642,30.9115469
-4.6785934,30.9124213
-4.6792907,30.9128022
-4.6799559,30.9135693
-4.6802885,30.9143579
-4.6803958,30.9152162
-4.6804173,30.9164608
-4.6806479,30.9176999
-4.6811361,30.9188908
-4.6819247,30.9202856
-4.6819515,30.9203231
-4.6818978,30.9204197
-4.681694,30.9205806
-4.6819032,30.920822
-4.6822787,30.9214014
-4.6822412,30.922308
-4.6824289,30.9232628
-4.682783,30.9245503
-4.6827722,30.9255749
-4.6829171,30.9264278
-4.6829922,30.9272218
-4.6831102,30.9278065
-4.6832443,30.9286648
-4.6836306,30.9296465
-4.6836145,30.9305531
-4.6838076,30.9315616
-4.6838612,30.9323448
-4.6840973,30.9333211
-4.6844835,30.934217
-4.6847356,30.9354937
-4.6851219,30.937103
-4.685669,30.9384871
-4.6862055,30.9396297
-4.6866293,30.9406811
-4.6871335,30.9417808
-4.6875412,30.9426659
-4.6880026,30.9432185
-4.6887482,30.9439158
-4.6894617,30.9453696
-4.6902127,30.9469038
-4.6904058,30.9478533
-4.6906794,30.9485453
-4.6908993,30.9492695
-4.6909476,30.9496611
-4.6909905,30.9504229
-4.6910764,30.9511739
-4.691366,30.9517425
-4.6918381,30.952574
-4.6921922,30.9535128
-4.6924443,30.9541994
-4.6928413,30.9552723
-4.6931041,30.9563881
-4.6934152,30.95752
-4.6936191,30.9582764
-4.6939034,30.9590757
-4.6943165,30.9599447
-4.694692,30.9610873
-4.6952874,30.9627503
-4.6956147,30.9636194
-4.6961136,30.9649283
-4.6967358,30.9662855
-4.6975566,30.9678251
-4.6980984,30.9691876
-4.6981574,30.9693539
-4.6986295,30.9702551
-4.6992732,30.971269
-4.6996004,30.9719074
-4.6996326,30.9719449
-4.6997506,30.9722829
-4.6999277,30.9729964
-4.7000725,30.9739619
-4.7001154,30.9749222
-4.7001208,30.9755927
-4.7002173,30.9766012
-4.7002924,30.9775937
-4.7005821,30.9784305
-4.7008074,30.9787738
-4.7009683,30.9789509
-4.7012956,30.9794068
-4.7013117,30.980233
-4.7014243,30.9803832
-4.7016174,30.9811127
-4.7017569,30.9817511
-4.7020788,30.9825933
-4.7025723,30.9837466
-4.7030283,30.9844548
-4.7036667,30.9855276
-4.7045035,30.986858
-4.7046537,30.9873676
-4.704305,30.9871209
-4.7042836,30.9865791
-4.7140253,30.9996307
-4.7140253,30.999974
-4.7142453,31.001417
-4.7144867,31.0025543
-4.7147174,31.0034984
-4.715125,31.0051507
-4.7155596,31.0064328
-4.7159994,31.0077256
-4.7162945,31.0088629
-4.7166378,31.0102415
-4.7169811,31.011883
-4.7169758,31.013369
-4.7169382,31.0161906
-4.7170294,31.0176176
-4.7169168,31.0187227
-4.7167719,31.0197794
-4.7165573,31.0212171
-4.7164018,31.0228425
-4.7162087,31.0241461
-4.7160585,31.0254174
-4.7159834,31.026721
-4.7158063,31.0282338
-4.7158063,31.0291618
-4.7158063,31.0292691
-4.7158063,31.0295212
-4.7158868,31.0305405
-4.7156669,31.0314149
-4.7156078,31.032595
-4.7158224,31.0333622
-4.7160048,31.0340166
-4.7162838,31.0345101
-4.716611,31.0355884
-4.7165681,31.0362858
-4.7164232,31.0368007
-4.7165681,31.0376483
-4.7169221,31.0386997
-4.7174317,31.0397512
-4.7176839,31.0406953
-4.7181667,31.0417628
-4.7186441,31.0422993
-4.7186763,31.0429859
-4.7187997,31.0437745
-4.7189231,31.0447884
-4.7191752,31.0455179
-4.7196794,31.0463762
-4.7200549,31.046977
-4.7203554,31.0481089
-4.7203983,31.0491014
-4.7203446,31.0496056
-4.7200818,31.0499382
-4.7192342,31.0501581
-4.7184885,31.0505337
-4.7182525,31.0508448
-4.7182364,31.0509145
-4.7182364,31.0511559
-4.7185154,31.051687
-4.7194327,31.052615
-4.7199047,31.0530925
-4.7211171,31.0538006
-4.7221149,31.0545355
-4.7228337,31.055131
-4.7232521,31.055705
-4.7239173,31.0565364
-4.7243411,31.0574752
-4.7247864,31.0582423
-4.7252692,31.058827
-4.726224,31.0593635
-4.7268999,31.0595995
-4.7272808,31.0600984
-4.7280694,31.060946
-4.7285146,31.0610586
-4.7288901,31.0612839
-4.7291047,31.0619384
-4.729904,31.0626411
-4.7306068,31.0635853
-4.73117,31.0643953
-4.7316367,31.0649854
-4.7327096,31.0662943
-4.7332461,31.0669595
-4.7336967,31.067335
-4.7343511,31.0671204
-4.734909,31.0673243
-4.7357083,31.0673994
-4.7362287,31.0675818
-4.7367168,31.0682791
-4.7374357,31.0695881
-4.7383798,31.0704249
-4.7392113,31.070897
-4.7407723,31.0712618
-4.7417969,31.0717338
-4.7424889,31.0724097
-4.7435779,31.0730857
-4.7443665,31.0737777
-4.7450424,31.074518
-4.7457291,31.0749847
-4.7464962,31.0754353
-4.7475154,31.0759878
-4.7485776,31.076535
-4.7494466,31.0768408
-4.7508682,31.0771841
-4.7517157,31.0774738
-4.7526545,31.0780692
-4.7529871,31.0784501
-4.7528745,31.0790348
-4.7528369,31.0799468
-4.7529227,31.0815507
-4.7530247,31.0827631
-4.7533358,31.0835892
-4.753883,31.084705
-4.7543229,31.0857189
-4.7548539,31.0865182
-4.7554011,31.0875213
-4.7556693,31.0883796
-4.7560502,31.0890931
-4.7563989,31.0899085
-4.7569139,31.0906166
-4.7575576,31.0915983
-4.7580511,31.0922205
-4.7585286,31.0926872
-4.759124,31.0932505
-4.7597516,31.0942107
-4.7603525,31.0951442
-4.7610445,31.095981
-4.7615648,31.0967481
-4.7621066,31.0973918
-4.7624821,31.0981321
-4.7630722,31.0994571
-4.7640324,31.1014313
-4.764188,31.1020482
-4.7646011,31.1029172
-4.7649819,31.1037058
-4.7653789,31.1046928
-4.765733,31.1050308
-4.7658188,31.1051542
-4.7660548,31.1056262
-4.7665645,31.1066884
-4.7670902,31.1079168
-4.7676373,31.1088395
-4.7682167,31.1095905
-4.7688443,31.1099607
-4.7699279,31.1107653
-4.7705019,31.1115324
-4.7711671,31.1123747
-4.7720147,31.113528
-4.7725404,31.114338
-4.7730554,31.1149925
-4.7735221,31.1157435
-4.773506,31.1162585
-4.773506,31.1173689
-4.7733719,31.1185062
-4.7732592,31.1198795
-4.7731144,31.1208612
-4.7727872,31.1218214
-4.7725887,31.1230767
-4.7724975,31.1245358
-4.7725565,31.1255926
-4.7727174,31.1268049
-4.7728945,31.1277866
-4.7732163,31.128763
-4.7740049,31.1300236
-4.7746915,31.1308551
-4.7748632,31.1312735
-4.7750939,31.1321318
-4.7752226,31.1327916
-4.7753514,31.1333549
-4.7756142,31.1344814
-4.7755499,31.1356509
-4.7757108,31.1360908
-4.7759951,31.1370081
-4.7764511,31.1375177
-4.7765959,31.1379415
-4.7771055,31.1387408
-4.7776205,31.1395025
-4.7780068,31.1400443
-4.777996,31.1404037
-4.7781838,31.1407042
-4.7785056,31.1414659
-4.7788114,31.1423886
-4.7790153,31.1428821
-4.7794444,31.1435795
-4.7793264,31.1444753
-4.7795893,31.1452049
-4.7802223,31.1458808
-4.7803832,31.1467338
-4.7804476,31.1474633
-4.7805441,31.1477691
-4.7807963,31.1481446
-4.7809089,31.1483163
-4.7814185,31.1493784
-4.7818852,31.1501509
-4.7823627,31.151197
-4.7825665,31.1518085
-4.7829528,31.1524737
-4.7832317,31.1533964
-4.7838593,31.15426
-4.7841705,31.1549306
-4.7847176,31.1553651
-4.7852755,31.1557192
-4.7852755,31.1557138
-4.7860802,31.1562341
-4.7863699,31.1563468
-4.7876573,31.1569959
-4.7883386,31.1575913
-4.7885586,31.1578006
-4.7892023,31.1581707
-4.7900928,31.1588734
-4.7905327,31.1594796
-4.7910477,31.1600858
-4.7915144,31.1604077
-4.7923029,31.1610836
-4.7932095,31.1620438
-4.793703,31.1626339
-4.7941268,31.1633044
-4.7946311,31.1639106
-4.7952587,31.1645275
-4.7955001,31.164667
-4.795763,31.1648816
-4.796117,31.1653
 </coordinates>
      </LineString>
    </Placemark>
    <Placemark>
      <name>Route</name>
      <description>The Route From Sam's Morocco Book.</description>
      <LineString>
        <coordinates>
-5.5833346, 29.9833310
-5.5133344, 29.9833310
-5.4833312, 30.0566679
-5.4450024, 30.0749981
-5.2516688, 30.1100010
-5.2066667, 30.1283312
-5.1650012, 30.1566660
-5.1133312, 30.2316660
-5.0900013, 30.2616692
-5.0150014, 30.3633356
-4.9916662, 30.4249996
-4.9933345, 30.4316676
-4.9866665, 30.4566658
-4.9733359, 30.4850006
-4.9049986, 30.5550009
-4.8833317, 30.5783308
-4.8199994, 30.6366688
-4.7566671, 30.6433314
-4.6899981, 30.6666666
-4.4250012, 30.6833339
-4.3949980, 30.7000011
-4.2499978, 30.7416666
-4.1599990, 30.7783324
-3.9983315, 30.8999974
-3.9783330, 30.9283322
-4.0049995, 31.0283356
-4.0116675, 31.0949993
 </coordinates>
      </LineString>
    </Placemark>
  </Document>
</kml>
